[{"OBJECT_NAME":"STARLINK-34087","OBJECT_ID":"2025-102C","EPOCH":"2026-03-09T13:10:45.494688","MEAN_MOTION":14.98330478,"ECCENTRICITY":0.00033669,"INCLINATION":70.001,"RA_OF_ASC_NODE":114.7097,"ARG_OF_PERICENTER":269.4069,"MEAN_ANOMALY":90.6704,"EPHEMERIS_TYPE":0,"CLASSIFICATION_TYPE":"U","NORAD_CAT_ID":64024,"ELEMENT_SET_NO":999,"REV_AT_EPOCH":4582,"BSTAR":4.3702647e-5,"MEAN_MOTION_DOT":4.28e-6,"MEAN_MOTION_DDOT":0},{"OBJECT_NAME":"CZ-6A DEB","OBJECT_ID":"2024-140HT","EPOCH":"2026-03-09T14:47:18.537792","MEAN_MOTION":14.73340782,"ECCENTRICITY":0.0120127,"INCLINATION":88.9844,"RA_OF_ASC_NODE":279.929,"ARG_OF_PERICENTER":188.2272,"MEAN_ANOMALY":171.6982,"EPHEMERIS_TYPE":0,"CLASSIFICATION_TYPE":"U","NORAD_CAT_ID":60840,"ELEMENT_SET_NO":999,"REV_AT_EPOCH":8412,"BSTAR":0.0011992,"MEAN_MOTION_DOT":8.732e-5,"MEAN_MOTION_DDOT":0}]
